KUIPER-00027            
1 63740U 25088S   26194.19839694  .00001886  00000+0  27630-3 0  9997
2 63740  51.9016 260.5999 0000417  97.9079 262.1931 14.79934596 66202
KUIPER-00028            
1 63741U 25088T   26194.23485438 -.00000507  00000+0 -37565-4 0  9996
2 63741  51.8993 257.8893 0000427  96.9037 263.1974 14.79927774 66659
KUIPER-00029            
1 63742U 25088U   26193.67065647  .00001217  00000+0  18868-3 0  9991
2 63742  51.9009 259.0701 0000234 316.9800  43.1144 14.79925931 66119
KUIPER-00030            
1 63743U 25088V   26194.24974372  .00000438  00000+0  86464-4 0  9992
2 63743  51.9014 275.3332 0000426 112.3581 247.7426 14.79929231 66228
KUIPER-00031            
1 63744U 25088W   26194.14880481  .00001459  00000+0  23780-3 0  9994
2 63744  51.8997 260.6405 0001945 196.7498 163.3399 14.76552368 66138
KUIPER-00032            
1 63745U 25088X   26194.23990658  .00010491  00000+0  26061-3 0  9994
2 63745  51.8667 135.3953 0002920 195.9258 164.1639 15.40893703 68881
KUIPER-00033            
1 63746U 25088Y   26194.26732271  .00001990  00000+0  28989-3 0  9998
2 63746  51.9016 290.2784 0000370 104.9344 255.1659 14.79946299 66215
KUIPER-00034            
1 63747U 25088Z   26193.42989045  .00000823  00000+0  13698-3 0  9994
2 63747  51.9008 256.5140 0000642  65.9522 294.1507 14.79930845 66297
KUIPER-00035            
1 63748U 25088AA  26193.53799148 -.00000314  00000+0 -12158-4 0  9998
2 63748  51.9010 281.0121 0000369  92.5504 267.5500 14.79929230 66018
KUIPER-00037            
1 63749U 25088AB  26194.27373612  .00000505  00000+0  95268-4 0  9998
2 63749  51.9011 276.6144 0000356 111.1039 248.9961 14.79938979 66926
KUIPER-00038            
1 63750U 25088AC  26193.45288611  .00000438  00000+0  86383-4 0  9996
2 63750  51.9017 266.4106 0000420  80.7788 279.3222 14.79933696 65998
KUIPER-00039            
1 64500U 25134A   26193.96568311  .00000862  00000+0  14205-3 0  9990
2 64500  51.9032  39.1415 0000581  58.2897 301.8122 14.79936123 58626
KUIPER-00040            
1 64501U 25134B   26193.98867414  .00000310  00000+0  69706-4 0  9994
2 64501  51.9005  49.1155 0000745 111.0527 249.0515 14.79933386 58480
KUIPER-00041            
1 64502U 25134C   26193.81713161  .00001262  00000+0  19451-3 0  9994
2 64502  51.8991  52.2610 0000583 113.9241 246.1783 14.79928612 58424
KUIPER-00042            
1 64503U 25134D   26193.99134863 -.00000303  00000+0 -10718-4 0  9995
2 64503  51.8993  46.4700 0000934 115.4353 244.6706 14.79931873 58525
KUIPER-00043            
1 64504U 25134E   26193.99943634  .00001147  00000+0  17947-3 0  9995
2 64504  51.9029  38.9309 0000819 119.9602 240.1442 14.79933014 58635
