{"fetched_at":"2026-07-13T18:16:29.920Z","source":"https://celestrak.org/NORAD/elements/gp.php?GROUP=kuiper&FORMAT=JSON","constellation":"kuiper","records":[{"OBJECT_NAME":"KUIPER-00027","OBJECT_ID":"2025-088S","EPOCH":"2026-07-13T04:45:41.495616","CLASSIFICATION_TYPE":"U","MEAN_MOTION":14.79934596,"ECCENTRICITY":0.00004177,"INCLINATION":51.9016,"RA_OF_ASC_NODE":260.5999,"ARG_OF_PERICENTER":97.9079,"MEAN_ANOMALY":262.1931,"EPHEMERIS_TYPE":0,"NORAD_CAT_ID":63740,"ELEMENT_SET_NO":999,"REV_AT_EPOCH":6620,"BSTAR":0.00027629506,"MEAN_MOTION_DOT":0.00001886,"MEAN_MOTION_DDOT":0},{"OBJECT_NAME":"KUIPER-00028","OBJECT_ID":"2025-088T","EPOCH":"2026-07-13T05:38:11.418432","CLASSIFICATION_TYPE":"U","MEAN_MOTION":14.79927774,"ECCENTRICITY":0.00004272,"INCLINATION":51.8993,"RA_OF_ASC_NODE":257.8893,"ARG_OF_PERICENTER":96.9037,"MEAN_ANOMALY":263.1974,"EPHEMERIS_TYPE":0,"NORAD_CAT_ID":63741,"ELEMENT_SET_NO":999,"REV_AT_EPOCH":6665,"BSTAR":-0.000037564527,"MEAN_MOTION_DOT":-0.00000507,"MEAN_MOTION_DDOT":0},{"OBJECT_NAME":"KUIPER-00029","OBJECT_ID":"2025-088U","EPOCH":"2026-07-12T16:05:44.719008","CLASSIFICATION_TYPE":"U","MEAN_MOTION":14.79925931,"ECCENTRICITY":0.00002347,"INCLINATION":51.9009,"RA_OF_ASC_NODE":259.0701,"ARG_OF_PERICENTER":316.98,"MEAN_ANOMALY":43.1144,"EPHEMERIS_TYPE":0,"NORAD_CAT_ID":63742,"ELEMENT_SET_NO":999,"REV_AT_EPOCH":6611,"BSTAR":0.00018867977,"MEAN_MOTION_DOT":0.00001217,"MEAN_MOTION_DDOT":0},{"OBJECT_NAME":"KUIPER-00030","OBJECT_ID":"2025-088V","EPOCH":"2026-07-13T05:59:37.857408","CLASSIFICATION_TYPE":"U","MEAN_MOTION":14.79929231,"ECCENTRICITY":0.00004262,"INCLINATION":51.9014,"RA_OF_ASC_NODE":275.3332,"ARG_OF_PERICENTER":112.3581,"MEAN_ANOMALY":247.7426,"EPHEMERIS_TYPE":0,"NORAD_CAT_ID":63743,"ELEMENT_SET_NO":999,"REV_AT_EPOCH":6622,"BSTAR":0.000086463994,"MEAN_MOTION_DOT":0.00000438,"MEAN_MOTION_DDOT":0},{"OBJECT_NAME":"KUIPER-00031","OBJECT_ID":"2025-088W","EPOCH":"2026-07-13T03:34:16.735584","CLASSIFICATION_TYPE":"U","MEAN_MOTION":14.76552368,"ECCENTRICITY":0.00019452,"INCLINATION":51.8997,"RA_OF_ASC_NODE":260.6405,"ARG_OF_PERICENTER":196.7498,"MEAN_ANOMALY":163.3399,"EPHEMERIS_TYPE":0,"NORAD_CAT_ID":63744,"ELEMENT_SET_NO":999,"REV_AT_EPOCH":6613,"BSTAR":0.00023779927,"MEAN_MOTION_DOT":0.00001459,"MEAN_MOTION_DDOT":0},{"OBJECT_NAME":"KUIPER-00032","OBJECT_ID":"2025-088X","EPOCH":"2026-07-13T05:45:27.928512","CLASSIFICATION_TYPE":"U","MEAN_MOTION":15.40893703,"ECCENTRICITY":0.00029204,"INCLINATION":51.8667,"RA_OF_ASC_NODE":135.3953,"ARG_OF_PERICENTER":195.9258,"MEAN_ANOMALY":164.1639,"EPHEMERIS_TYPE":0,"NORAD_CAT_ID":63745,"ELEMENT_SET_NO":999,"REV_AT_EPOCH":6888,"BSTAR":0.0002606127,"MEAN_MOTION_DOT":0.00010491,"MEAN_MOTION_DDOT":0},{"OBJECT_NAME":"KUIPER-00033","OBJECT_ID":"2025-088Y","EPOCH":"2026-07-13T06:24:56.682144","CLASSIFICATION_TYPE":"U","MEAN_MOTION":14.79946299,"ECCENTRICITY":0.00003709,"INCLINATION":51.9016,"RA_OF_ASC_NODE":290.2784,"ARG_OF_PERICENTER":104.9344,"MEAN_ANOMALY":255.1659,"EPHEMERIS_TYPE":0,"NORAD_CAT_ID":63746,"ELEMENT_SET_NO":999,"REV_AT_EPOCH":6621,"BSTAR":0.00028988831,"MEAN_MOTION_DOT":0.0000199,"MEAN_MOTION_DDOT":0},{"OBJECT_NAME":"KUIPER-00034","OBJECT_ID":"2025-088Z","EPOCH":"2026-07-12T10:19:02.534880","CLASSIFICATION_TYPE":"U","MEAN_MOTION":14.79930845,"ECCENTRICITY":0.00006422,"INCLINATION":51.9008,"RA_OF_ASC_NODE":256.514,"ARG_OF_PERICENTER":65.9522,"MEAN_ANOMALY":294.1507,"EPHEMERIS_TYPE":0,"NORAD_CAT_ID":63747,"ELEMENT_SET_NO":999,"REV_AT_EPOCH":6629,"BSTAR":0.00013697945,"MEAN_MOTION_DOT":0.00000823,"MEAN_MOTION_DDOT":0},{"OBJECT_NAME":"KUIPER-00035","OBJECT_ID":"2025-088AA","EPOCH":"2026-07-12T12:54:42.463872","CLASSIFICATION_TYPE":"U","MEAN_MOTION":14.7992923,"ECCENTRICITY":0.00003699,"INCLINATION":51.901,"RA_OF_ASC_NODE":281.0121,"ARG_OF_PERICENTER":92.5504,"MEAN_ANOMALY":267.55,"EPHEMERIS_TYPE":0,"NORAD_CAT_ID":63748,"ELEMENT_SET_NO":999,"REV_AT_EPOCH":6601,"BSTAR":-0.000012158392,"MEAN_MOTION_DOT":-0.00000314,"MEAN_MOTION_DDOT":0},{"OBJECT_NAME":"KUIPER-00037","OBJECT_ID":"2025-088AB","EPOCH":"2026-07-13T06:34:10.800768","CLASSIFICATION_TYPE":"U","MEAN_MOTION":14.79938979,"ECCENTRICITY":0.00003564,"INCLINATION":51.9011,"RA_OF_ASC_NODE":276.6144,"ARG_OF_PERICENTER":111.1039,"MEAN_ANOMALY":248.9961,"EPHEMERIS_TYPE":0,"NORAD_CAT_ID":63749,"ELEMENT_SET_NO":999,"REV_AT_EPOCH":6692,"BSTAR":0.000095267617,"MEAN_MOTION_DOT":0.00000505,"MEAN_MOTION_DDOT":0},{"OBJECT_NAME":"KUIPER-00038","OBJECT_ID":"2025-088AC","EPOCH":"2026-07-12T10:52:09.359904","CLASSIFICATION_TYPE":"U","MEAN_MOTION":14.79933696,"ECCENTRICITY":0.00004204,"INCLINATION":51.9017,"RA_OF_ASC_NODE":266.4106,"ARG_OF_PERICENTER":80.7788,"MEAN_ANOMALY":279.3222,"EPHEMERIS_TYPE":0,"NORAD_CAT_ID":63750,"ELEMENT_SET_NO":999,"REV_AT_EPOCH":6599,"BSTAR":0.000086383162,"MEAN_MOTION_DOT":0.00000438,"MEAN_MOTION_DDOT":0},{"OBJECT_NAME":"KUIPER-00039","OBJECT_ID":"2025-134A","EPOCH":"2026-07-12T23:10:35.020704","CLASSIFICATION_TYPE":"U","MEAN_MOTION":14.79936123,"ECCENTRICITY":0.0000581,"INCLINATION":51.9032,"RA_OF_ASC_NODE":39.1415,"ARG_OF_PERICENTER":58.2897,"MEAN_ANOMALY":301.8122,"EPHEMERIS_TYPE":0,"NORAD_CAT_ID":64500,"ELEMENT_SET_NO":999,"REV_AT_EPOCH":5862,"BSTAR":0.00014205235,"MEAN_MOTION_DOT":0.00000862,"MEAN_MOTION_DDOT":0},{"OBJECT_NAME":"KUIPER-00040","OBJECT_ID":"2025-134B","EPOCH":"2026-07-12T23:43:41.445696","CLASSIFICATION_TYPE":"U","MEAN_MOTION":14.79933386,"ECCENTRICITY":0.00007458,"INCLINATION":51.9005,"RA_OF_ASC_NODE":49.1155,"ARG_OF_PERICENTER":111.0527,"MEAN_ANOMALY":249.0515,"EPHEMERIS_TYPE":0,"NORAD_CAT_ID":64501,"ELEMENT_SET_NO":999,"REV_AT_EPOCH":5848,"BSTAR":0.000069706229,"MEAN_MOTION_DOT":0.0000031,"MEAN_MOTION_DDOT":0},{"OBJECT_NAME":"KUIPER-00041","OBJECT_ID":"2025-134C","EPOCH":"2026-07-12T19:36:40.171104","CLASSIFICATION_TYPE":"U","MEAN_MOTION":14.79928612,"ECCENTRICITY":0.00005833,"INCLINATION":51.8991,"RA_OF_ASC_NODE":52.261,"ARG_OF_PERICENTER":113.9241,"MEAN_ANOMALY":246.1783,"EPHEMERIS_TYPE":0,"NORAD_CAT_ID":64502,"ELEMENT_SET_NO":999,"REV_AT_EPOCH":5842,"BSTAR":0.00019451365,"MEAN_MOTION_DOT":0.00001262,"MEAN_MOTION_DDOT":0},{"OBJECT_NAME":"KUIPER-00042","OBJECT_ID":"2025-134D","EPOCH":"2026-07-12T23:47:32.521632","CLASSIFICATION_TYPE":"U","MEAN_MOTION":14.79931873,"ECCENTRICITY":0.00009344,"INCLINATION":51.8993,"RA_OF_ASC_NODE":46.47,"ARG_OF_PERICENTER":115.4353,"MEAN_ANOMALY":244.6706,"EPHEMERIS_TYPE":0,"NORAD_CAT_ID":64503,"ELEMENT_SET_NO":999,"REV_AT_EPOCH":5852,"BSTAR":-0.000010717646,"MEAN_MOTION_DOT":-0.00000303,"MEAN_MOTION_DDOT":0},{"OBJECT_NAME":"KUIPER-00043","OBJECT_ID":"2025-134E","EPOCH":"2026-07-12T23:59:11.299776","CLASSIFICATION_TYPE":"U","MEAN_MOTION":14.79933014,"ECCENTRICITY":0.00008196,"INCLINATION":51.9029,"RA_OF_ASC_NODE":38.9309,"ARG_OF_PERICENTER":119.9602,"MEAN_ANOMALY":240.1442,"EPHEMERIS_TYPE":0,"NORAD_CAT_ID":64504,"ELEMENT_SET_NO":999,"REV_AT_EPOCH":5863,"BSTAR":0.0001794746,"MEAN_MOTION_DOT":0.00001147,"MEAN_MOTION_DDOT":0}]}
